[
    {
        "Altitude(m)": 622200.0935582386,
        "Argument of Periapsis(deg)": 0.0,
        "Eccentricity": 0.0,
        "Inclination(deg)": 60.0,
        "Latitude(deg)": -52.16250057378346,
        "Longitude(deg)": 37.36087489972075,
        "Mean Anomaly(deg)": -65.45449999999992,
        "RAAN(deg)": 184.99999999999997,
        "Satellite Name": "Test1 832",
        "Satellite Number": 832,
        "Semi-Major Axis(m)": 6980739.136638005,
        "Time(s)": 0
    },
    {
        "Altitude(m)": 622058.2608010373,
        "Argument of Periapsis(deg)": 0.00010418945913296404,
        "Eccentricity": 0.0,
        "Inclination(deg)": 60.0,
        "Latitude(deg)": -51.799248947482525,
        "Longitude(deg)": 38.128930545650555,
        "Mean Anomaly(deg)": -64.83439385453808,
        "RAAN(deg)": 184.99957995086024,
        "Satellite Name": "Test1 832",
        "Satellite Number": 832,
        "Semi-Major Axis(m)": 6980739.136638005,
        "Time(s)": 10
    }
]